OBJECT_NAME,OBJECT_ID,EPOCH,MEAN_MOTION,ECCENTRICITY,INCLINATION,RA_OF_ASC_NODE,ARG_OF_PERICENTER,MEAN_ANOMALY,EPHEMERIS_TYPE,CLASSIFICATION_TYPE,NORAD_CAT_ID,ELEMENT_SET_NO,REV_AT_EPOCH,BSTAR,MEAN_MOTION_DOT,MEAN_MOTION_DDOT
IONOSFERA-M 2,2024-199B,2026-07-17T06:10:16.077792,14.22762768,.00005761,98.7130,71.0167,128.2373,231.8857,0,U,61736,999,13510,.23942649E-4,.1E-6,0
PRSC-EO1,2025-012A,2026-07-17T07:44:59.534592,15.17636196,.00069367,97.4212,270.1917,140.4375,219.7366,0,U,62725,999,8276,.15791859E-3,.3112E-4,0
BIOMASS,2025-090A,2026-07-17T05:46:58.435968,14.67536349,.00014752,98.0751,25.1184,92.4699,267.6674,0,U,63772,999,6509,.49906737E-4,.235E-5,0
GOSAT-GW (IBUKI GW),2025-141A,2026-07-17T06:11:46.110912,14.67555299,.00014389,98.0565,135.0867,85.0027,275.1342,0,U,64694,999,5625,.45249796E-4,.209E-5,0
IONOSFERA-M 3,2025-155A,2026-07-17T07:14:32.229888,14.21491050,.00023473,98.6042,159.4516,109.3783,250.7648,0,U,64876,999,5068,.24844848E-4,.11E-6,0
IONOSFERA-M 4,2025-155B,2026-07-17T06:23:16.498752,14.21493440,.00018533,98.6040,159.3340,97.5927,262.5461,0,U,64877,999,5067,.25459348E-4,.13E-6,0
MICROCARB,2025-156A,2026-07-16T18:33:32.900544,14.72886118,.00177456,98.0074,274.4532,165.7348,194.4365,0,U,64899,999,5232,.47437536E-4,.254E-5,0
CO3D 3,2025-156B,2026-07-17T06:26:51.604512,15.20201212,.00017509,97.4333,276.5294,93.8770,266.2665,0,U,64900,999,5410,.98736534E-4,.207E-4,0
CO3D 4,2025-156C,2026-07-17T06:27:04.754592,15.20200904,.00017898,97.4337,276.5294,150.6453,209.4883,0,U,64901,999,5410,.32864835E-4,.644E-5,0
CO3D 2,2025-156D,2026-07-17T05:39:03.381120,15.20203442,.00012331,97.4335,276.3954,90.6403,269.4974,0,U,64902,999,5409,.14945667E-3,.3169E-4,0
CO3D 1,2025-156E,2026-07-17T05:39:16.322112,15.20210705,.00013383,97.4334,276.3956,101.9917,258.1469,0,U,64903,999,5409,.10611527E-3,.2231E-4,0
PRSC-S1,2025-164A,2026-07-17T05:28:34.201632,15.06645016,.00070251,41.1301,118.5925,210.7124,149.3280,0,U,65055,999,5296,.16050684E-3,.2245E-4,0
SENTINEL-6B,2025-264A,2026-07-17T01:36:27.927360,12.80930176,.00078409,66.0412,73.1188,268.5819,91.4298,0,U,66514,999,3099,.88133266E-4,-.41E-6,0
CAS500-3,2025-274F,2026-07-17T06:24:18.114912,14.88386584,.00061081,97.7436,125.6340,32.5250,327.6343,0,U,66655,999,3462,.67773387E-4,.574E-5,0
CSG-3,2026-001A,2026-07-13T12:40:32.844288,14.82151371,.00015181,97.8894,17.7492,93.3222,266.8165,0,U,67304,999,2836,.2348529E-4,.135E-5,0
PRSC-E03,2026-092A,2026-07-17T06:36:59.832864,15.06814511,.00050198,38.0010,272.2357,263.8644,96.1546,0,U,68835,999,1249,.81100654E-4,.1121E-4,0
CAS500-2,2026-100AK,2026-07-17T06:55:35.506560,15.19739145,.00079057,97.3856,95.5693,244.8214,115.2201,0,U,69013,999,1138,.18140199E-3,.3812E-4,0
