IONOSFERA-M 2           
1 61736U 24199B   26198.25713053  .00000010  00000+0  23943-4 0  9995
2 61736  98.7130  71.0167 0000576 128.2373 231.8857 14.22762768135108
PRSC-EO1                
1 62725U 25012A   26198.32291128  .00003112  00000+0  15792-3 0  9999
2 62725  97.4212 270.1917 0006936 140.4375 219.7366 15.17636196 82766
BIOMASS                 
1 63772U 25090A   26198.24095412  .00000235  00000+0  49907-4 0  9996
2 63772  98.0751  25.1184 0001475  92.4699 267.6674 14.67536349 65090
GOSAT-GW (IBUKI GW)     
1 64694U 25141A   26198.25817258  .00000209  00000+0  45250-4 0  9996
2 64694  98.0565 135.0867 0001438  85.0027 275.1342 14.67555299 56257
IONOSFERA-M 3           
1 64876U 25155A   26198.30176192  .00000011  00000+0  24845-4 0  9992
2 64876  98.6042 159.4516 0002347 109.3783 250.7648 14.21491050 50688
IONOSFERA-M 4           
1 64877U 25155B   26198.26616318  .00000013  00000+0  25459-4 0  9991
2 64877  98.6040 159.3340 0001853  97.5927 262.5461 14.21493440 50678
MICROCARB               
1 64899U 25156A   26197.77329746  .00000254  00000+0  47438-4 0  9995
2 64899  98.0074 274.4532 0017745 165.7348 194.4365 14.72886118 52321
CO3D 3                  
1 64900U 25156B   26198.26865283  .00002070  00000+0  98737-4 0  9990
2 64900  97.4333 276.5294 0001750  93.8770 266.2665 15.20201212 54101
CO3D 4                  
1 64901U 25156C   26198.26880503  .00000644  00000+0  32865-4 0  9998
2 64901  97.4337 276.5294 0001789 150.6453 209.4883 15.20200904 54106
CO3D 2                  
1 64902U 25156D   26198.23545580  .00003169  00000+0  14946-3 0  9993
2 64902  97.4335 276.3954 0001233  90.6403 269.4974 15.20203442 54093
CO3D 1                  
1 64903U 25156E   26198.23560558  .00002231  00000+0  10612-3 0  9991
2 64903  97.4334 276.3956 0001338 101.9917 258.1469 15.20210705 54091
PRSC-S1                 
1 65055U 25164A   26198.22817363  .00002245  00000+0  16051-3 0  9995
2 65055  41.1301 118.5925 0007025 210.7124 149.3280 15.06645016 52968
SENTINEL-6B             
1 66514U 25264A   26198.06698990 -.00000041  00000+0  88133-4 0  9996
2 66514  66.0412  73.1188 0007840 268.5819  91.4298 12.80930176 30990
CAS500-3                
1 66655U 25274F   26198.26687633  .00000574  00000+0  67773-4 0  9994
2 66655  97.7436 125.6340 0006108  32.5250 327.6343 14.88386584 34627
CSG-3                   
1 67304U 26001A   26194.52815792  .00000135  00000+0  23485-4 0  9994
2 67304  97.8894  17.7492 0001518  93.3222 266.8165 14.82151371 28369
PRSC-E03                
1 68835U 26092A   26198.27569251  .00001121  00000+0  81101-4 0  9991
2 68835  38.0010 272.2357 0005019 263.8644  96.1546 15.06814511 12499
CAS500-2                
1 69013U 26100AK  26198.28860540  .00003812  00000+0  18140-3 0  9997
2 69013  97.3856  95.5693 0007905 244.8214 115.2201 15.19739145 11382
